{
  "type": "FeatureCollection",
  "features": [
    {
      "type": "Feature",
      "properties": {
        "norad_id": 27954,
        "name": "GALAXY 13 (HORIZONS-1)",
        "group": "intelsat",
        "lat": 0.9567806192065853,
        "lon": 162.90035250602725,
        "alt_km": 35789.23960307436,
        "timestamp": "2025-12-27T14:26:30.183898+00:00",
        "meta_object_name": "GALAXY 13 (HORIZONS-1)",
        "meta_object_id": "2003-044A",
        "meta_epoch": "2025-12-27T05:26:26.263968",
        "meta_mean_motion": 1.00272827,
        "meta_eccentricity": 0.00022884,
        "meta_inclination": 0.9743,
        "meta_ra_of_asc_node": 86.284,
        "meta_arg_of_pericenter": 188.5611,
        "meta_mean_anomaly": 112.7003,
        "meta_ephemeris_type": 0,
        "meta_classification_type": "U",
        "meta_norad_cat_id": 27954,
        "meta_element_set_no": 999,
        "meta_rev_at_epoch": 4484,
        "meta_bstar": 0,
        "meta_mean_motion_dot": 1.55e-06,
        "meta_mean_motion_ddot": 0,
        "tle_line1": "1 27954U 03044A   25361.22669287  .00000155  00000+0  00000+0 0  9996",
        "tle_line2": "2 27954   0.9743  86.2840 0002288 188.5611 112.7003  1.00272827 44843"
      },
      "geometry": {
        "type": "Point",
        "coordinates": [
          162.90035250602725,
          0.9567806192065853
        ]
      }
    },
    {
      "type": "Feature",
      "properties": {
        "norad_id": 28358,
        "name": "INTELSAT 10-02",
        "group": "intelsat",
        "lat": -0.03024334127530935,
        "lon": -48.010914293982076,
        "alt_km": 35781.19472034693,
        "timestamp": "2025-12-27T14:26:30.183913+00:00",
        "meta_object_name": "INTELSAT 10-02",
        "meta_object_id": "2004-022A",
        "meta_epoch": "2025-12-27T04:26:17.024928",
        "meta_mean_motion": 1.00270123,
        "meta_eccentricity": 0.00012817,
        "meta_inclination": 0.0163,
        "meta_ra_of_asc_node": 51.3497,
        "meta_arg_of_pericenter": 251.566,
        "meta_mean_anomaly": 218.6151,
        "meta_ephemeris_type": 0,
        "meta_classification_type": "U",
        "meta_norad_cat_id": 28358,
        "meta_element_set_no": 999,
        "meta_rev_at_epoch": 7883,
        "meta_bstar": 0,
        "meta_mean_motion_dot": 1.1e-07,
        "meta_mean_motion_ddot": 0,
        "tle_line1": "1 28358U 04022A   25361.18491927  .00000011  00000+0  00000+0 0  9992",
        "tle_line2": "2 28358   0.0163  51.3497 0001281 251.5660 218.6151  1.00270123 78830"
      },
      "geometry": {
        "type": "Point",
        "coordinates": [
          -48.010914293982076,
          -0.03024334127530935
        ]
      }
    },
    {
      "type": "Feature",
      "properties": {
        "norad_id": 28626,
        "name": "XM-3 (RHYTHM)",
        "group": "intelsat",
        "lat": -0.21317715727321002,
        "lon": -3.4175845185392064,
        "alt_km": 36150.78882343005,
        "timestamp": "2025-12-27T14:26:30.183928+00:00",
        "meta_object_name": "XM-3 (RHYTHM)",
        "meta_object_id": "2005-008A",
        "meta_epoch": "2025-12-27T06:22:05.934144",
        "meta_mean_motion": 0.98950711,
        "meta_eccentricity": 0.00023042,
        "meta_inclination": 0.2102,
        "meta_ra_of_asc_node": 82.3505,
        "meta_arg_of_pericenter": 270.8272,
        "meta_mean_anomaly": 243.5776,
        "meta_ephemeris_type": 0,
        "meta_classification_type": "U",
        "meta_norad_cat_id": 28626,
        "meta_element_set_no": 999,
        "meta_rev_at_epoch": 4089,
        "meta_bstar": 0,
        "meta_mean_motion_dot": 7.2e-07,
        "meta_mean_motion_ddot": 0,
        "tle_line1": "1 28626U 05008A   25361.26534646  .00000072  00000+0  00000+0 0  9997",
        "tle_line2": "2 28626   0.2102  82.3505 0002304 270.8272 243.5776  0.98950711 40896"
      },
      "geometry": {
        "type": "Point",
        "coordinates": [
          -3.4175845185392064,
          -0.21317715727321002
        ]
      }
    },
    {
      "type": "Feature",
      "properties": {
        "norad_id": 28659,
        "name": "DIRECTV 8",
        "group": "intelsat",
        "lat": 0.011109189090087337,
        "lon": -166.1267526909909,
        "alt_km": 35786.37116557248,
        "timestamp": "2025-12-27T14:26:30.183939+00:00",
        "meta_object_name": "DIRECTV 8",
        "meta_object_id": "2005-019A",
        "meta_epoch": "2025-12-26T09:14:16.477152",
        "meta_mean_motion": 1.00271765,
        "meta_eccentricity": 0.0003134,
        "meta_inclination": 0.0135,
        "meta_ra_of_asc_node": 57.3028,
        "meta_arg_of_pericenter": 228.1398,
        "meta_mean_anomaly": 189.2168,
        "meta_ephemeris_type": 0,
        "meta_classification_type": "U",
        "meta_norad_cat_id": 28659,
        "meta_element_set_no": 999,
        "meta_rev_at_epoch": 7534,
        "meta_bstar": 0,
        "meta_mean_motion_dot": 2.3e-07,
        "meta_mean_motion_ddot": 0,
        "tle_line1": "1 28659U 05019A   25360.38491293  .00000023  00000+0  00000+0 0  9993",
        "tle_line2": "2 28659   0.0135  57.3028 0003134 228.1398 189.2168  1.00271765 75343"
      },
      "geometry": {
        "type": "Point",
        "coordinates": [
          -166.1267526909909,
          0.011109189090087337
        ]
      }
    },
    {
      "type": "Feature",
      "properties": {
        "norad_id": 28702,
        "name": "GALAXY 28 (G-28)",
        "group": "intelsat",
        "lat": 1.3230494260023216,
        "lon": -126.71782926020589,
        "alt_km": 35680.14937663058,
        "timestamp": "2025-12-27T14:26:30.183951+00:00",
        "meta_object_name": "GALAXY 28 (G-28)",
        "meta_object_id": "2005-022A",
        "meta_epoch": "2025-12-27T05:37:26.570784",
        "meta_mean_motion": 1.00599457,
        "meta_eccentricity": 0.00034148,
        "meta_inclination": 2.8569,
        "meta_ra_of_asc_node": 81.1133,
        "meta_arg_of_pericenter": 161.6106,
        "meta_mean_anomaly": 217.4788,
        "meta_ephemeris_type": 0,
        "meta_classification_type": "U",
        "meta_norad_cat_id": 28702,
        "meta_element_set_no": 999,
        "meta_rev_at_epoch": 5025,
        "meta_bstar": 0,
        "meta_mean_motion_dot": -2.35e-06,
        "meta_mean_motion_ddot": 0,
        "tle_line1": "1 28702U 05022A   25361.23433531 -.00000235  00000+0  00000+0 0  9998",
        "tle_line2": "2 28702   2.8569  81.1133 0003414 161.6106 217.4788  1.00599457 50250"
      },
      "geometry": {
        "type": "Point",
        "coordinates": [
          -126.71782926020589,
          1.3230494260023216
        ]
      }
    },
    {
      "type": "Feature",
      "properties": {
        "norad_id": 29236,
        "name": "GALAXY 16 (G-16)",
        "group": "intelsat",
        "lat": -0.004483846093741543,
        "lon": -146.0914646558076,
        "alt_km": 35781.52243561751,
        "timestamp": "2025-12-27T14:26:30.183963+00:00",
        "meta_object_name": "GALAXY 16 (G-16)",
        "meta_object_id": "2006-023A",
        "meta_epoch": "2025-12-27T05:40:54.876864",
        "meta_mean_motion": 1.00271202,
        "meta_eccentricity": 0.00027459,
        "meta_inclination": 0.0429,
        "meta_ra_of_asc_node": 195.3646,
        "meta_arg_of_pericenter": 84.5486,
        "meta_mean_anomaly": 162.2754,
        "meta_ephemeris_type": 0,
        "meta_classification_type": "U",
        "meta_norad_cat_id": 29236,
        "meta_element_set_no": 999,
        "meta_rev_at_epoch": 7124,
        "meta_bstar": 0,
        "meta_mean_motion_dot": -1.04e-06,
        "meta_mean_motion_ddot": 0,
        "tle_line1": "1 29236U 06023A   25361.23674626 -.00000104  00000+0  00000+0 0  9990",
        "tle_line2": "2 29236   0.0429 195.3646 0002745  84.5486 162.2754  1.00271202 71242"
      },
      "geometry": {
        "type": "Point",
        "coordinates": [
          -146.0914646558076,
          -0.004483846093741543
        ]
      }
    },
    {
      "type": "Feature",
      "properties": {
        "norad_id": 29494,
        "name": "DIRECTV 9S",
        "group": "intelsat",
        "lat": 1.5366382616576597,
        "lon": -148.27051136210287,
        "alt_km": 35781.34913950623,
        "timestamp": "2025-12-27T14:26:30.183975+00:00",
        "meta_object_name": "DIRECTV 9S",
        "meta_object_id": "2006-043A",
        "meta_epoch": "2025-12-27T05:40:17.437152",
        "meta_mean_motion": 1.00271318,
        "meta_eccentricity": 0.00031286,
        "meta_inclination": 1.9756,
        "meta_ra_of_asc_node": 83.0552,
        "meta_arg_of_pericenter": 198.0551,
        "meta_mean_anomaly": 158.7284,
        "meta_ephemeris_type": 0,
        "meta_classification_type": "U",
        "meta_norad_cat_id": 29494,
        "meta_element_set_no": 999,
        "meta_rev_at_epoch": 4965,
        "meta_bstar": 0,
        "meta_mean_motion_dot": -9.2e-07,
        "meta_mean_motion_ddot": 0,
        "tle_line1": "1 29494U 06043A   25361.23631293 -.00000092  00000+0  00000+0 0  9997",
        "tle_line2": "2 29494   1.9756  83.0552 0003128 198.0551 158.7284  1.00271318 49656"
      },
      "geometry": {
        "type": "Point",
        "coordinates": [
          -148.27051136210287,
          1.5366382616576597
        ]
      }
    }
  ]
}